ONEWEB-0685             
1 54679U 22166AP  25328.86341671  .00000083  00000+0  16830-3 0  9995
2 54679  87.9200 284.7449 0001726  90.9195 269.2137 13.21833681144427
ONEWEB-0712             
1 54680U 22166AQ  25328.78018860 -.00000032  00000+0 -11658-3 0  9998
2 54680  87.9034 269.4746 0002343  87.7376 272.4023 13.16593172145169
ONEWEB-0714             
1 54681U 22166AR  25328.86941617  .00000074  00000+0  14858-3 0  9992
2 54681  87.9202 284.7379 0001895  87.6114 272.5237 13.21824645144546
ONEWEB-0532             
1 55140U 23004A   25328.76504426 -.00000005  00000+0 -45484-4 0  9993
2 55140  87.9138  46.5076 0001432 106.1889 253.9400 13.17647775140662
ONEWEB-0533             
1 55141U 23004B   25328.68440881 -.00000062  00000+0 -20861-3 0  9993
2 55141  87.8959  31.2906 0001861 106.7999 253.3334 13.12443641141235
ONEWEB-0541             
1 55142U 23004C   25328.78325493  .00000551  00000+0  15177-2 0  9990
2 55142  87.8865  61.7516 0001689 100.1615 259.9704 13.11417703139158
ONEWEB-0543             
1 55143U 23004D   25328.67664207 -.00000003  00000+0 -41334-4 0  9998
2 55143  87.9184  16.1183 0002134 100.8013 259.3359 13.18683987142748
ONEWEB-0544             
1 55144U 23004E   25328.67006068 -.00000002  00000+0 -36860-4 0  9991
2 55144  87.9186  16.1093 0001982  92.9675 267.1684 13.18686316142743
